XRISM                   
1 57800U 23137A   23324.26011239  .00003620  00000+0  28761-3 0  9991
2 57800  31.0039 266.1057 0010476 289.0682  70.8818 14.98644041 11148
